METHANESAT              
1 59101U 24043D   26105.26995063  .00000824  00000+0  75167-4 0  9996
2 59101  97.8351 236.0507 0009500 215.7192 144.3395 14.97830676115237
GOSAT-GW (IBUKI GW)     
1 64694U 25141A   26105.25869330 -.00000301  00000+0 -44712-4 0  9999
2 64694  98.0539  43.6102 0001367  84.8594 275.2767 14.67556731 42610
GHGSAT-C1               
1 46278U 20061G   26105.28445615  .00022504  00000+0  21182-3 0  9994
2 46278  97.2122 188.5502 0000888 192.1415 167.9825 15.67116623313618
GHGSAT-C12              
1 64529U 25135B   26105.18451274  .00001884  00000+0  90995-4 0  9994
2 64529  97.4663 220.5967 0005852  47.2915 312.8812 15.19875957 45250
GHGSAT-C13              
1 64548U 25135W   26105.28395668  .00001925  00000+0  91157-4 0  9997
2 64548  97.4694 221.1700 0001340  43.8322 316.3019 15.20543861 45299
GHGSAT-C2               
1 47509U 21006DA  26105.08039923  .00003704  00000+0  10434-3 0  9990
2 47509  97.2222 153.4314 0006263  50.2547 309.9249 15.37054775290159
GHGSAT-C3               
1 52737U 22057F   26105.28875606  .00004315  00000+0  13561-3 0  9997
2 52737  97.6497 248.6612 0005628 358.2442   1.8779 15.33553873215896
GHGSAT-C4               
1 52746U 22057Q   26105.24343906  .00003800  00000+0  11980-3 0  9997
2 52746  97.6423 247.5095 0005507 341.7093  18.3950 15.33536734215894
GHGSAT-C5               
1 52744U 22057N   26105.32676834  .00003691  00000+0  11645-3 0  9999
2 52744  97.6588 250.2018 0006353 351.7050   8.4085 15.33528378215900
GHGSAT-C6               
1 56204U 23054AC  26105.26305094  .00007995  00000+0  13865-3 0  9999
2 56204  97.3092  14.1177 0004128 265.9586  94.1195 15.51142022168698
GHGSAT-C7               
1 56209U 23054AH  26105.28442080  .00006182  00000+0  11765-3 0  9997
2 56209  97.3058  12.9081 0005678 261.7080  98.3527 15.48580133168655
GHGSAT-C8               
1 56186U 23054J   26105.23384891  .00007915  00000+0  13719-3 0  9997
2 56186  97.3042  13.4563 0002757 318.7110  41.3934 15.51165470168674
SENTINEL-5P             
1 42969U 17064A   26105.25763539  .00000008  00000+0  24625-4 0  9992
2 42969  98.7928  47.8410 0001277  85.2642 274.8680 14.19508025440630
ENMAP                   
1 52159U 22033C   26105.27837778  .00000240  00000+0  43119-4 0  9992
2 52159  97.9793 188.4211 0001712  98.9177 261.2226 14.75011261217385
PRISMA                  
1 44072U 19015A   26105.28520024  .00000055  00000+0  13078-4 0  9992
2 44072  97.8667 180.9865 0001384  78.8779 281.2590 14.83646491382726
SENTINEL-2A             
1 40697U 15028A   26105.27766664 -.00000250  00000+0 -78691-4 0  9993
2 40697  98.5635 181.0329 0001320  90.0915 270.0419 14.30819420564738
SENTINEL-2B             
1 42063U 17013A   26105.27042009 -.00000188  00000+0 -54991-4 0  9995
2 42063  98.5662 180.9392 0001226  93.7165 266.4158 14.30820044475641
SENTINEL-2C             
1 60989U 24157A   26105.16554076  .00000052  00000+0  36329-4 0  9992
2 60989  98.5641 180.8506 0001363 108.2741 251.8590 14.30813490 83971
LANDSAT 8               
1 39084U 13008A   26105.26104180  .00000160  00000+0  45567-4 0  9999
2 39084  98.1861 176.3744 0001175  94.5480 265.5853 14.57117774688735
LANDSAT 9               
1 49260U 21088A   26105.22685649  .00000177  00000+0  49283-4 0  9990
2 49260  98.1883 176.4113 0001141 100.9032 259.2295 14.57113536241833
TANAGER-1               
1 60507U 24149AR  26104.99400595  .00009199  00000+0  20296-3 0  9991
2 60507  97.3602 198.8572 0007565 165.1918 194.9553 15.44091354 93285
